NORAD_CAT_ID,OBJECT_NAME,OBJECT_TYPE,EPOCH,MEAN_MOTION,ECCENTRICITY,INCLINATION,RA_OF_ASC_NODE,ARG_OF_PERICENTER,MEAN_ANOMALY,BSTAR,MEAN_MOTION_DOT,MEAN_MOTION_DDOT,TLE_LINE0,TLE_LINE1,TLE_LINE2,SEMIMAJOR_AXIS,PERIOD,APOGEE,PERIGEE,DECAYED
53711.0,STARLINK-4627,PAYLOAD,2024-01-13 20:43:35,15.08844354,0.0001356,53.2163,176.6343,94.5661,265.5486,5.2083e-05,5.41e-06,0.0,0 STARLINK-4627,1 53711U 22107M   24013.86360459  .00000541  00000-0  52083-4 0  9992,2 53711  53.2163 176.6343 0001356  94.5661 265.5486 15.08844354 75409,6917.867,95.437,540.67,538.794,0.0
53711.0,STARLINK-4627,PAYLOAD,2024-01-14 11:02:04,15.08834993,0.0001377,53.2167,173.9561,92.5605,267.5545,6.1228e-05,6.87e-06,0.0,0 STARLINK-4627,1 53711U 22107M   24014.45977142  .00000687  00000-0  61228-4 0  9993,2 53711  53.2167 173.9561 0001377  92.5605 267.5545 15.08834993 75499,6917.896,95.438,540.713,538.808,0.0
53711.0,STARLINK-4627,PAYLOAD,2024-01-14 14:12:50,15.08838143,0.000136,53.2165,173.3613,94.3518,265.7629,8.486e-05,1.063e-05,0.0,0 STARLINK-4627,1 53711U 22107M   24014.59224926  .00001063  00000-0  84860-4 0  9999,2 53711  53.2165 173.3613 0001360  94.3518 265.7629 15.08838143 75959,6917.886,95.438,540.692,538.81,0.0
53711.0,STARLINK-4627,PAYLOAD,2024-01-14 17:23:36,15.08839966,0.0001376,53.2168,172.7665,92.3477,267.7673,0.00010003,1.304e-05,0.0,0 STARLINK-4627,1 53711U 22107M   24014.72472808  .00001304  00000-0  10003-3 0  9993,2 53711  53.2168 172.7665 0001376  92.3477 267.7673 15.08839966 75978,6917.88,95.438,540.697,538.794,0.0
53711.0,STARLINK-4627,PAYLOAD,2024-01-15 14:03:37,15.08841577,0.0001351,53.217,168.8999,97.0346,263.08,-9.4526e-06,-4.38e-06,0.0,0 STARLINK-4627,1 53711U 22107M   24015.58585141 -.00000438  00000-0 -94526-5 0  9996,2 53711  53.2170 168.8999 0001351  97.0346 263.0800 15.08841577 76105,6917.876,95.437,540.675,538.806,0.0
53711.0,STARLINK-4627,PAYLOAD,2024-01-15 17:14:24,15.08804379,0.0001579,53.2172,168.3055,96.3267,263.7905,0.00052396,8.053e-05,0.0,0 STARLINK-4627,1 53711U 22107M   24015.71833827  .00008053  00000-0  52396-3 0  9994,2 53711  53.2172 168.3055 0001579  96.3267 263.7905 15.08804379 75685,6917.989,95.44,540.947,538.762,0.0
53711.0,STARLINK-4627,PAYLOAD,2024-01-16 10:43:38,15.08834068,0.0001426,53.2178,165.0389,96.3479,263.7676,-5.1893e-06,-3.71e-06,0.0,0 STARLINK-4627,1 53711U 22107M   24016.44697852 -.00000371  00000-0 -51893-5 0  9991,2 53711  53.2178 165.0389 0001426  96.3479 263.7676 15.08834068 75796,6917.899,95.438,540.75,538.777,0.0
53711.0,STARLINK-4627,PAYLOAD,2024-01-16 13:54:25,15.088356,0.0001456,53.218,164.4442,100.4422,259.6735,5.5644e-06,-1.99e-06,0.0,0 STARLINK-4627,1 53711U 22107M   24016.57945730 -.00000199  00000-0  55644-5 0  9991,2 53711  53.2180 164.4442 0001456 100.4422 259.6735 15.08835600 76255,6917.894,95.438,540.766,538.752,0.0
53711.0,STARLINK-4627,PAYLOAD,2024-01-16 17:05:11,15.08842581,0.0001605,53.218,163.8495,96.5365,263.581,-2.9466e-05,-7.57e-06,0.0,0 STARLINK-4627,1 53711U 22107M   24016.71193451 -.00000757  00000-0 -29466-4 0  9995,2 53711  53.2180 163.8495 0001605  96.5365 263.5810 15.08842581 75830,6917.872,95.437,540.848,538.627,0.0
53711.0,STARLINK-4627,PAYLOAD,2024-01-17 13:45:12,15.0883399,0.0001278,53.2175,159.9835,92.7978,267.316,3.4757e-05,2.65e-06,0.0,0 STARLINK-4627,1 53711U 22107M   24017.57306067  .00000265  00000-0  34757-4 0  9990,2 53711  53.2175 159.9835 0001278  92.7978 267.3160 15.08833990 76400,6917.899,95.438,540.648,538.88,0.0
53711.0,STARLINK-4627,PAYLOAD,2024-01-17 16:55:58,15.08839636,0.0001373,53.2175,159.389,93.7322,266.3827,7.0637e-05,8.36e-06,0.0,0 STARLINK-4627,1 53711U 22107M   24017.70553685  .00000836  00000-0  70637-4 0  9996,2 53711  53.2175 159.3890 0001373  93.7322 266.3827 15.08839636 76429,6917.882,95.438,540.696,538.797,0.0
53711.0,STARLINK-4627,PAYLOAD,2024-01-18 08:49:50,15.08830723,0.0001544,53.2186,156.4181,54.0799,306.0337,0.00015962,2.253e-05,0.0,0 STARLINK-4627,1 53711U 22107M   24018.36794287  .00002253  00000-0  15962-3 0  9998,2 53711  53.2186 156.4181 0001544  54.0799 306.0337 15.08830723 76088,6917.909,95.438,540.842,538.706,0.0
53711.0,STARLINK-4627,PAYLOAD,2024-01-18 13:35:59,15.08836106,0.0002132,53.2185,155.527,75.9156,284.2073,0.00011085,1.476e-05,0.0,0 STARLINK-4627,1 53711U 22107M   24018.56666229  .00001476  00000-0  11085-3 0  9992,2 53711  53.2185 155.5270 0002132  75.9156 284.2073 15.08836106 76556,6917.892,95.438,541.232,538.282,0.0
53711.0,STARLINK-4627,PAYLOAD,2024-01-18 16:46:45,15.08846308,0.0002106,53.2184,154.9321,72.2606,287.8616,5.4636e-05,5.82e-06,0.0,0 STARLINK-4627,1 53711U 22107M   24018.69913771  .00000582  00000-0  54636-4 0  9990,2 53711  53.2184 154.9321 0002106  72.2606 287.8616 15.08846308 76137,6917.861,95.437,541.183,538.269,0.0
53711.0,STARLINK-4627,PAYLOAD,2024-01-19 08:40:37,15.08845243,0.0001924,53.2182,151.9587,64.6958,295.4233,1.8803e-05,1.1e-07,0.0,0 STARLINK-4627,1 53711U 22107M   24019.36154112  .00000011  00000-0  18803-4 0  9994,2 53711  53.2182 151.9587 0001924  64.6958 295.4233 15.08845243 76236,6917.864,95.437,541.06,538.398,0.0
53711.0,STARLINK-4627,PAYLOAD,2024-01-19 13:26:46,15.08841285,0.0001927,53.2182,151.0664,64.2687,295.8504,4.801e-05,4.76e-06,0.0,0 STARLINK-4627,1 53711U 22107M   24019.56026162  .00000476  00000-0  48010-4 0  9997,2 53711  53.2182 151.0664 0001927  64.2687 295.8504 15.08841285 76700,6917.876,95.437,541.075,538.408,0.0
53711.0,STARLINK-4627,PAYLOAD,2024-01-19 15:02:09,15.08826343,0.0001788,53.218,150.7689,67.1688,292.9492,0.00027568,4.101e-05,0.0,0 STARLINK-4627,1 53711U 22107M   24019.62650250  .00004101  00000-0  27568-3 0  9998,2 53711  53.2180 150.7689 0001788  67.1688 292.9492 15.08826343 76273,6917.922,95.438,541.024,538.55,0.0
53711.0,STARLINK-4627,PAYLOAD,2024-01-20 14:52:56,15.08838942,0.0001501,53.2169,146.3067,76.9381,283.1779,8.7859e-06,-1.48e-06,0.0,0 STARLINK-4627,1 53711U 22107M   24020.62010224 -.00000148  00000-0  87859-5 0  9990,2 53711  53.2169 146.3067 0001501  76.9381 283.1779 15.08838942 76865,6917.884,95.438,540.787,538.71,0.0
53711.0,STARLINK-4627,PAYLOAD,2024-01-21 13:08:20,15.08841964,0.000155,53.2171,142.1433,94.9188,265.1981,5.2908e-05,5.54e-06,0.0,0 STARLINK-4627,1 53711U 22107M   24021.54745830  .00000554  00000-0  52908-4 0  9996,2 53711  53.2171 142.1433 0001550  94.9188 265.1981 15.08841964 76568,6917.874,95.437,540.812,538.667,0.0
53711.0,STARLINK-4627,PAYLOAD,2024-01-22 14:34:30,15.08840191,0.0001602,53.218,137.3865,102.5678,257.5494,8.5284e-05,1.07e-05,0.0,0 STARLINK-4627,1 53711U 22107M   24022.60729949  .00001070  00000-0  85284-4 0  9994,2 53711  53.2180 137.3865 0001602 102.5678 257.5494 15.08840191 76724,6917.88,95.438,540.853,538.637,0.0
53711.0,STARLINK-4627,PAYLOAD,2024-01-23 14:25:17,15.08850049,0.0001821,53.2175,132.9256,101.6166,258.503,-2.6094e-05,-7.04e-06,0.0,0 STARLINK-4627,1 53711U 22107M   24023.60089700 -.00000704  00000-0 -26094-4 0  9998,2 53711  53.2175 132.9256 0001821 101.6166 258.5030 15.08850049 77314,6917.85,95.437,540.974,538.455,0.0
53711.0,STARLINK-4627,PAYLOAD,2024-01-24 11:05:19,15.0883331,0.000161,53.2178,129.0574,97.9593,262.1582,-3.1617e-05,-7.91e-06,0.0,0 STARLINK-4627,1 53711U 22107M   24024.46203098 -.00000791  00000-0 -31617-4 0  9994,2 53711  53.2178 129.0574 0001610  97.9593 262.1582 15.08833310 77005,6917.901,95.438,540.88,538.652,0.0
53711.0,STARLINK-4627,PAYLOAD,2024-01-24 14:16:05,15.0883589,0.0001662,53.2185,128.4592,86.4208,273.6974,-1.4975e-05,-5.26e-06,0.0,0 STARLINK-4627,1 53711U 22107M   24024.59451080 -.00000526  00000-0 -14975-4 0  9998,2 53711  53.2185 128.4592 0001662  86.4208 273.6974 15.08835890 77466,6917.893,95.438,540.908,538.608,0.0
53711.0,STARLINK-4627,PAYLOAD,2024-01-25 14:06:52,15.08846098,0.0001682,53.2177,124.0018,71.0572,289.0602,2.9843e-05,1.87e-06,0.0,0 STARLINK-4627,1 53711U 22107M   24025.58810559  .00000187  00000-0  29843-4 0  9999,2 53711  53.2177 124.0018 0001682  71.0572 289.0602 15.08846098 77616,6917.862,95.437,540.89,538.563,0.0
53711.0,STARLINK-4627,PAYLOAD,2024-01-26 10:46:53,15.08839951,0.0002133,53.2188,120.1331,60.7985,299.3221,9.7937e-05,1.271e-05,0.0,0 STARLINK-4627,1 53711U 22107M   24026.44923041  .00001271  00000-0  97937-4 0  9990,2 53711  53.2188 120.1331 0002133  60.7985 299.3221 15.08839951 77305,6917.881,95.438,541.221,538.27,0.0
53711.0,STARLINK-4627,PAYLOAD,2024-01-26 12:22:16,15.08840429,0.00021,53.2186,119.8367,61.4122,298.7082,0.00010036,1.309e-05,0.0,0 STARLINK-4627,1 53711U 22107M   24026.51546990  .00001309  00000-0  10036-3 0  9998,2 53711  53.2186 119.8367 0002100  61.4122 298.7082 15.08840429 77751,6917.879,95.438,541.197,538.291,0.0
53711.0,STARLINK-4627,PAYLOAD,2024-01-27 12:13:03,15.08844445,0.0001952,53.2178,115.3812,66.6056,293.5141,3.6343e-05,2.9e-06,0.0,0 STARLINK-4627,1 53711U 22107M   24027.50906913  .00000290  00000-0  36343-4 0  9991,2 53711  53.2178 115.3812 0001952  66.6056 293.5141 15.08844445 77464,6917.867,95.437,541.082,538.381,0.0
53711.0,STARLINK-4627,PAYLOAD,2024-01-28 10:28:27,15.08836336,0.0001696,53.2173,111.2153,107.171,252.9468,-9.2015e-06,-4.34e-06,0.0,0 STARLINK-4627,1 53711U 22107M   24028.43643220 -.00000434  00000-0 -92015-5 0  9994,2 53711  53.2173 111.2153 0001696 107.1710 252.9468 15.08836336 77602,6917.892,95.438,540.93,538.583,0.0
53711.0,STARLINK-4627,PAYLOAD,2024-01-28 15:14:37,15.08836743,0.0001675,53.2173,110.3204,105.4669,254.6508,-5.4373e-06,-3.75e-06,0.0,0 STARLINK-4627,1 53711U 22107M   24028.63515188 -.00000375  00000-0 -54373-5 0  9996,2 53711  53.2173 110.3204 0001675 105.4669 254.6508 15.08836743 78078,6917.89,95.438,540.914,538.597,0.0
53711.0,STARLINK-4627,PAYLOAD,2024-01-29 10:19:14,15.08837727,0.0001776,53.2174,106.7522,111.1375,248.9807,5.8621e-05,6.45e-06,0.0,0 STARLINK-4627,1 53711U 22107M   24029.43003078  .00000645  00000-0  58621-4 0  9992,2 53711  53.2174 106.7522 0001776 111.1375 248.9807 15.08837727 78195,6917.887,95.438,540.981,538.524,0.0
